#dP2024  6 12  0  0  0.00000000      97 __u+U IGS20 FIT  IAC
## 2318 259200.00000000   900.00000000 60473 0.0000000000000
+  120   C06C07C08C09C10C11C12C13C14C16C19C20C21C22C23C24C25
+        C26C27C28C29C30C32C33C34C35C36C37C38C39C40C41C42C43
+        C44C45C46E02E03E04E05E07E08E09E10E11E12E13E14E15E18
+        E19E21E25E26E27E24E30E31E33E34E36G01G02G03G04G05G06
+        G07G08G09G10G11G12G13G14G15G16G17G18G19G20G21G22G23
+        G24G25G26G27G28G29G30G31G32J02J03J04R01R02R03R04R05
+        R07R08R09R11R12R13R14R15R16R17R18R19R20R21R22R24R25
+        R26  0  0  0  0  0  0  0  0  0  0  0  0  0  0  0  0
++         7  8  7  7  8  7  7  7  7  7  5  6  6  5  5  5  6
++         5  5  6  5  6  6  6  6  5  6  5  6  6  6  6  6  6
++         6  6  5  4  4  4  4  4  5  4  4  4  4  4  4  4  4
++         4  4  4  4  4  4  4  4  4  4  4  4  3  3  3  4  4
++         3  4  4  3  4  3  4  3  3  3  3  3  4  4  3  3  3
++         3  3  3  3  3  3  3  3  3 11 11 11  7  6  7  7  7
++         6  6  6  6  6  7  6  6  6  7  7  8  8  7  6  6  8
++         7  0  0  0  0  0  0  0  0  0  0  0  0  0  0  0  0
%c M  cc GPS ccc cccc cccc cccc cccc ccccc ccccc ccccc ccccc
%c cc cc ccc ccc cccc cccc cccc cccc ccccc ccccc ccccc ccccc
%f  1.2500000  1.025000000  0.00000000000  0.000000000000000
%f  0.0000000  0.000000000  0.00000000000  0.000000000000000
%i    0    0    0    0      0      0      0      0         0
%i    0    0    0    0      0      0      0      0         0
/* INFORMATION & ANALYSIS CENTER (IAC)            FINAL DATA
/* S/V CLOCKS ARE ALIGNED TO GNSS TIME                      
/* G:C1WC2W R:C1PC2P E:C1XC5X C:C2IC6I J:C1CC2S             
/* PCV:IGS20_2317 OL/AL:FES2004  NONE     YN ORB:CoN CLK:CoN
*  2024 06 12  5  0  0.00000000
PC06  -8778.412942  23141.106155 -34054.235955    497.672215
PC07 -14920.352099  37822.929546  10800.070839   -645.535933
PC08    -81.624178  36345.434850  21540.429949   -204.620872
PC09    877.933616  25034.875211 -33354.995346    122.355131
PC10  -7870.549885  37563.270813  17119.328533    -25.421580
PC11  10152.709314  13702.666500  22153.188240    609.328021
PC12 -11728.838155  15160.741561  20310.784025   -255.894663
PC13   4199.490282  38886.941355  16253.706765    438.002988
PC14   3460.614398  22073.843990 -16666.695938    911.754058
PC16 -11278.742238  21738.247747 -34056.757561   -583.372520
PC19  -9938.476487 -14545.590491  21672.672085   -914.004736
PC20   2500.481696 -25729.128066  10574.669862   -565.950201
PC21 -14684.315544  22283.745314   8106.594210   -973.638191
PC22 -17455.626767   5672.163304  21003.961520     26.005968
PC23  20966.627642   6081.059241  17394.788512   -786.339269
PC24   5248.252316  23305.078211 -14449.704446    904.740620
PC25  19039.660949  20303.736990   2131.939809    423.606522
PC26 -10682.270490  12550.706490 -22535.740630   -304.556581
PC27  20056.966232 -13063.867631 -14364.897617    325.864564
PC28  27660.511517  -3690.739985    399.148926    250.375721
PC29 -19133.342089  -9390.071040 -18021.991790    293.866428
PC30   1551.252348 -16427.419940 -22515.660796   -100.943290
PC32  14539.611818 -22389.190359  -8160.830625   -645.209352
PC33  10013.979189  14527.308699 -21612.341150   -961.171643
PC34    329.466196  16250.365229  22667.699072    453.899947
PC35 -27553.544050   4472.053911   -781.758503    340.101368
PC36 -18582.664511 -20697.041499  -2171.725530    108.001119
PC37  11095.326947 -12158.139024  22548.361462   -943.468126
PC38  -5009.233120  33068.881357  25802.434806    160.795253
PC39 -15652.681553  20817.912481 -33128.181327     -8.692038
PC40 -22437.338521  34089.777696   9970.597916    -74.719071
PC41  17326.190141  -4832.894261 -21290.664132   -967.261464
PC42  -3692.673124  26133.880696  -8960.835210   -445.931819
PC43  18319.177302  10018.121013  18491.361745     75.040386
PC44 -19697.754747  13839.361259  14117.642787    501.079145
PC45 -20911.500218  -6441.316246 -17303.948580    -93.597633
PC46  -5781.704399 -23415.735317  14005.055841   -156.077065
PE02 -14649.515180  12568.625156 -22445.593051    134.818901
PE03 -25328.590667  15040.062917   2799.874970   -119.838811
PE04  12722.427427 -21824.794014  15446.716943   -419.271090
PE05 -22735.823673   -422.387917  18951.709906   4756.235587
PE07   6487.556549  15932.090671 -24077.993443   -125.292390
PE08 -13559.700098  21723.443146 -14826.475973   -285.598797
PE09  -6279.847823 -15900.356517  24171.853814   -476.642221
PE10  -7568.339017 -18917.638211 -21481.710468   -632.064019
PE11 -17738.277064 -18863.516705 -14371.365907   2657.017288
PE12   2690.695897 -16327.906757 -24554.160595  -1078.377772
PE13  17275.381373  18887.501810  14856.224854    -22.196747
PE14 -21128.893734  11334.538292  -2666.088774     69.875284
PE15  -3293.327776  16004.451471  24679.727453   -108.378269
PE18  23552.390576 -21237.800237  -6065.296514    216.298203
PE19  25843.555482 -13647.586121  -4705.538603    102.848457
PE21  16461.930378   9299.592624  22774.703387   -599.538587
PE25 -16390.020522  -9774.793500 -22620.839009      5.633336
PE26  27461.189976  10295.959290  -4008.832745    481.364436
PE27   8706.833155  26561.014880   9749.065136   -373.038279
PE24  -8507.832132 -26700.370031  -9522.853109   -814.203326
PE30  -4255.760117  27900.247182  -8943.211229   -396.221933
PE31   4093.349840 -27944.312003   8873.860924    -26.158364
PE33  21943.558837  -3405.423291 -19577.547502     12.702109
PE34 -21595.054636   3820.217529  19866.673147   -116.523250
PE36 -27386.664112 -10700.660005   3452.047731   -240.051566
PG01   8567.776795 -19830.491989  14856.659437    260.440470
PG02 -20458.428563 -13851.984904  -9657.293381   -419.300543
PG03 -12248.160808 -17869.252869  15292.019418    409.445912
PG04 -14264.516532  -7836.191448  21033.042828    381.362127
PG05   5544.505636  25876.273244  -1789.436463   -176.022129
PG06 -13975.789928   8783.104083  20894.226879    223.266175
PG07 -25108.999585  -5114.356167  -7321.799086    -95.506794
PG08  -4881.446779 -15350.978000 -21160.659810    225.596933
PG09 -21710.221052   3879.554572  14755.971023    231.485707
PG10  11075.795329 -14371.421682 -19069.079266    -41.077898
PG11     33.184631  16215.962643  21068.996840   -683.601467
PG12  10392.027166  20211.822846  13504.904134   -513.369669
PG13  -5198.921875  17758.049944 -19172.764500    657.315155
PG14 -13671.006385  10340.272186 -20198.923494    423.368738
PG15   6943.025317  15163.981576 -21142.470646    169.209576
PG16   -307.733378 -26290.974521    707.354241   -266.639367
PG17 -22923.683744  13364.813478  -2033.934002    695.759450
PG18  24698.041571   4488.661049  -8969.840746   -623.791836
PG19 -19412.223155  16593.945617   6317.272842    495.217873
PG20   1014.267844  25107.807624   8894.994259    373.930204
PG21 -16741.529539 -15621.286073 -13847.513264    115.994602
PG22 -10368.723704  18655.008223 -15573.005116    -26.171235
PG23  14746.526738  -1341.529874 -22030.219585    248.251380
PG24  18493.067697  15358.607362 -12155.866586   -477.108301
PG25  15035.510839  10763.460108  18825.376270    497.216076
PG26   6151.256487 -21560.156891  13800.656631    138.363916
PG27   6780.929999 -19645.390315 -16579.890695    -27.899468
PG28  16103.583036  -8262.699023  19427.658009   -285.059898
PG29  20634.298206    448.311503  16731.489153   -594.600516
PG30 -20582.099877   4191.714493 -16259.758870   -375.643194
PG31   5591.714360 -14214.387687  21504.371121   -227.438651
PG32  21232.425784 -15759.984899   -476.884680   -616.475579
PJ02 -22238.207383  29599.781010 -15395.129157     -0.317530
PJ03 -27891.380105  23627.928175  26234.932883      0.556329
PJ04 -30856.734173  28083.652914  11853.809842     50.344496
PR01   9493.527925 -22700.703965   6763.801056     88.141794
PR02  -1353.042871 -15461.062868  20269.584558    -23.239728
PR03 -12452.405655    239.961716  22317.739505    101.909263
PR04 -16386.666246  15265.612855  12251.102518    240.694941
PR05 -11759.069049  22210.200617  -4416.551133    132.957633
PR07  12733.663884   -935.664126 -22031.636616     84.397325
PR08  16257.931898 -15588.934634 -11882.095041     -4.874368
PR09  12519.416590  22164.916068   -564.077732    191.747114
PR11  11012.768020  -2535.620342  22880.164460     21.689381
PR12  -1156.036618 -19096.314526  16895.567166     41.213631
PR13 -10972.013557 -22801.925467   3210.904509    -48.273376
PR14 -15707.588473 -12815.186933 -15481.186149     26.564082
PR15 -10327.476600   4117.222330 -22934.083709     78.899590
PR16   1197.309365  18894.212418 -17060.342936     26.409550
PR17 -24475.243405  -3703.809264  -6064.800742     95.080728
PR18 -23049.973813   3560.548308  10392.321033    146.593911
PR19 -11850.074913   8436.004657  20945.272118   -280.017232
PR20  11079.178036  10146.477293  20604.538961   -114.359464
PR21  24397.741533   4004.377924   6328.834511   -108.548623
PR22  22543.484418  -3678.662366 -11322.336480    103.724447
PR24 -12068.459739  -9965.089291 -20126.101912    -59.507970
PR25  24433.973961   4620.035008   5736.760318    -47.978557
PR26  16214.370506 -14747.729963 -13049.324188     -6.494350
EOF
